PROBA-1                 
1 26958U 01049B   26157.84810885  .00002112  00000+0  13914-3 0  9993
2 26958  97.9599 166.0200 0055434 156.3870 203.9920 15.07447312342060
CUTE-1 (CO-55)          
1 27844U 03031E   26157.49994927  .00000321  00000+0  15775-3 0  9999
2 27844  98.6735 166.1932 0008851 210.1158 149.9513 14.24329258190151
CUBESAT XI-IV (CO-57)   
1 27848U 03031J   26157.55333329  .00000268  00000+0  13659-3 0  9992
2 27848  98.6767 165.9671 0008459 230.3427 129.7005 14.23615194189868
APRIZESAT 4             
1 35684U 09041D   26157.19822005  .00000839  00000+0  10654-3 0  9996
2 35684  98.1412 232.2996 0043196 359.0984   1.0144 14.83864919909738
APRIZESAT 3             
1 35686U 09041F   26157.66635066  .00001445  00000+0  12900-3 0  9999
2 35686  98.2057 310.3875 0062849 101.5582 259.2702 14.96212138914805
PROBA-2                 
1 36037U 09059B   26157.78657709  .00000207  00000+0  58854-4 0  9994
2 36037  98.2451 341.2838 0012323 317.2726  42.7512 14.54857997880015
APRIZESAT 5             
1 37792U 11044E   26157.53553253  .00001338  00000+0  17588-3 0  9996
2 37792  98.2452  90.2743 0053133  38.2578 322.2384 14.81052702797213
APRIZESAT 6             
1 37793U 11044F   26156.51628799  .00000814  00000+0  12180-3 0  9993
2 37793  98.2372  66.7773 0044238 122.3000  58.2477 14.76898404795428
PROBA-V                 
1 39159U 13021A   26157.64671764  .00000091  00000+0  58067-4 0  9995
2 39159  98.3579 136.7740 0004643 149.0860 211.0594 14.23594764679619
APRIZESAT 7             
1 39416U 13066A   26157.15188332  .00001540  00000+0  15777-3 0  9990
2 39416  97.7702 110.5307 0034355 247.0865 112.6726 14.91541126679580
APRIZESAT 8             
1 39425U 13066K   26157.64864722  .00001252  00000+0  14140-3 0  9991
2 39425  97.8217 105.2639 0044969 322.2435  37.5629 14.87632138678105
BUGSAT-1 (TITA)         
1 40014U 14033E   26157.86837142  .00007766  00000+0  41048-3 0  9995
2 40014  98.0418 249.8146 0027250 214.1596 145.7883 15.15474218654277
SAUDISAT 4              
1 40016U 14033G   26157.63620825  .00000873  00000+0  12140-3 0  9993
2 40016  97.7572 304.1370 0046185 107.2479 253.3795 14.79530218644516
APRIZESAT 9             
1 40018U 14033J   26156.87254485  .00000758  00000+0  11882-3 0  9999
2 40018  97.9048 290.3486 0064978 235.9898 123.5128 14.74199706641890
APRIZESAT 10            
1 40019U 14033K   26156.90212951  .00000481  00000+0  83483-4 0  9996
2 40019  97.9637 284.1142 0077719 310.4913  48.9538 14.70872885640592
TECHDEMOSAT-1 (TDS-1)   
1 40076U 14037H   26157.71071821  .00011037  00000+0  62643-3 0  9995
2 40076  98.3813 148.8868 0004771 314.4588  45.6249 15.13139100646646
TECHNOSAT               
1 42829U 17042E   26157.41131952  .00003563  00000+0  25504-3 0  9991
2 42829  97.4272 315.4814 0018942 127.9977 232.2964 15.04891353485082
FLYING LAPTOP           
1 42831U 17042G   26157.85335031  .00004642  00000+0  36601-3 0  9995
2 42831  97.4652 313.7874 0019013 155.4398 204.7736 15.01078856484900
HAWK-A                  
1 43765U 18099H   26157.58418851  .00007943  00000+0  32073-3 0  9993
2 43765  97.3914 209.9587 0033669 324.9313  34.9708 15.24517214411483
HAWK-B                  
1 43794U 18099AN  26157.59312244  .00007382  00000+0  31539-3 0  9998
2 43794  97.3964 209.4050 0031363 343.6273  16.3948 15.22708773411426
HAWK-C                  
1 43799U 18099AT  26157.58464448  .00009736  00000+0  35152-3 0  9996
2 43799  97.3890 210.8200 0039360 324.8352  35.0290 15.27954123412297
SALSAT                  
1 46495U 20068K   26157.74488442  .00010129  00000+0  35498-3 0  9990
2 46495  97.8851 160.1753 0009050 349.8452  10.2602 15.29647917313762
HAWK-2C                 
1 47502U 21006CT  26157.58890580  .00008080  00000+0  24372-3 0  9997
2 47502  97.2280 202.1108 0005525 227.1818 132.8962 15.34535306297877
HAWK-2A                 
1 47505U 21006CW  26157.39587817  .00008436  00000+0  25427-3 0  9992
2 47505  97.2322 202.5932 0004972 232.4988 127.5804 15.34547678297846
HAWK-2B                 
1 47508U 21006CZ  26157.58758778  .00009230  00000+0  27728-3 0  9991
2 47508  97.2190 201.1297 0005505 228.6611 131.4160 15.34621505297878
HAWK-3B                 
1 48931U 21059BE  26157.48300283  .00051989  00000+0  45688-3 0  9996
2 48931  97.6678 353.1855 0003943  19.0571 341.0837 15.68648218276170
HAWK-3C                 
1 48948U 21059BX  26157.80164030  .00051393  00000+0  45097-3 0  9991
2 48948  97.6799 359.2017 0004515  18.2395 341.9027 15.68684182276226
HAWK-3A                 
1 48957U 21059CG  26157.80153909  .00049694  00000+0  43623-3 0  9998
2 48957  97.6740 356.4157 0004523  20.0334 340.1103 15.68681440276229
HAWK-5C                 
1 52754U 22057Y   26157.40026150  .00027044  00000+0  46631-3 0  9997
2 52754  97.6586 316.3762 0005409 114.0834 246.0984 15.51004853224679
HAWK-5B                 
1 52756U 22057AA  26157.65817939  .00025037  00000+0  43170-3 0  9994
2 52756  97.6598 314.9992 0006022 106.4779 253.7134 15.51016567224710
